{
  "countries" : [
    {
      "name_en": "Afghanistan",
      "label": "Afganistán",
      "value": "Afganistán",
      "continent_en": "Africa",
      "continent_es": "África",
      "capital_en": "Kabul",
      "capital_es": "Kabul",
      "dial_code": "+93",
      "code_2": "AF",
      "code_3": "AFG",
      "tld": ".af"
    },
    {
      "name_en": "Åland Islands",
      "label": "Åland",
      "value": "Åland",
      "continent_en": "Europe",
      "continent_es": "Europa",
      "capital_en": "Mariehamn",
      "capital_es": "Mariehamn",
      "dial_code": "+358",
      "code_2": "AX",
      "code_3": "ALA",
      "tld": ".ax"
    },
    {
      "name_en": "Albania",
      "label": "Albania",
      "value": "Albania",
      "continent_en": "Europe",
      "continent_es": "Europa",
      "capital_en": "Tirana",
      "capital_es": "Tirana",
      "dial_code": "+355",
      "code_2": "AL",
      "code_3": "ALB",
      "tld": ".al"
    },
    {
      "name_en": "Algeria",
      "label": "Argelia",
      "value": "Argelia",
      "continent_en": "Africa",
      "continent_es": "África",
      "capital_en": "Algiers",
      "capital_es": "Argel",
      "dial_code": "+213",
      "code_2": "DZ",
      "code_3": "DZA",
      "tld": ".dz"
    },
    {
      "name_en": "American Samoa",
      "label": "Samoa Americana",
      "value": "Samoa Americana",
      "continent_en": "Oceania",
      "continent_es": "Oceanía",
      "capital_en": "Pago Pago",
      "capital_es": "Pago Pago",
      "dial_code": "+1684",
      "code_2": "AS",
      "code_3": "ASM",
      "tld": ".as"
    },
    {
      "name_en": "Andorra",
      "label": "Andorra",
      "value": "Andorra",
      "continent_en": "Europe",
      "continent_es": "Europa",
      "capital_en": "Andorra la Vella",
      "capital_es": "Andorra la Vieja",
      "dial_code": "+376",
      "code_2": "AD",
      "code_3": "AND",
      "tld": ".ad"
    },
    {
      "name_en": "Angola",
      "label": "Angola",
      "value": "Angola",
      "continent_en": "Africa",
      "continent_es": "África",
      "capital_en": "Luanda",
      "capital_es": "Luanda",
      "dial_code": "+244",
      "code_2": "AO",
      "code_3": "AGO",
      "tld": ".ao"
    },
    {
      "name_en": "Anguilla",
      "label": "Anguilla",
      "value": "Anguilla",
      "continent_en": "North America",
      "continent_es": "América del Norte",
      "capital_en": "The Valley",
      "capital_es": "El Valle",
      "dial_code": "+1264",
      "code_2": "AI",
      "code_3": "AIA",
      "tld": ".ai"
    },
    {
      "name_en": "Antarctica",
      "label": "Antártida",
      "value": "Antártida",
      "continent_en": "Antarctica",
      "continent_es": "Antártida",
      "capital_en": "",
      "capital_es": "",
      "dial_code": "+672",
      "code_2": "AQ",
      "code_3": "ATA",
      "tld": ".aq"
    },
    {
      "name_en": "Antigua and Barbuda",
      "label": "Antigua y Barbuda",
      "value": "Antigua y Barbuda",
      "continent_en": "North America",
      "continent_es": "América del Norte",
      "capital_en": "St. John's",
      "capital_es": "Saint John",
      "dial_code": "+1268",
      "code_2": "AG",
      "code_3": "ATG",
      "tld": ".ag"
    },
    {
      "name_en": "Argentina",
      "label": "Argentina",
      "value": "Argentina",
      "continent_en": "South America",
      "continent_es": "América del Sur",
      "capital_en": "Buenos Aires",
      "capital_es": "Buenos Aires",
      "dial_code": "+54",
      "code_2": "AR",
      "code_3": "ARG",
      "tld": ".ar"
    },
    {
      "name_en": "Armenia",
      "label": "Armenia",
      "value": "Armenia",
      "continent_en": "Asia",
      "continent_es": "Asia",
      "capital_en": "Yerevan",
      "capital_es": "Ereván",
      "dial_code": "+374",
      "code_2": "AM",
      "code_3": "ARM",
      "tld": ".am"
    },
    {
      "name_en": "Aruba",
      "label": "Aruba",
      "value": "Aruba",
      "continent_en": "North America",
      "continent_es": "América del Norte",
      "capital_en": "Oranjestad",
      "capital_es": "Oranjestad",
      "dial_code": "+297",
      "code_2": "AW",
      "code_3": "ABW",
      "tld": ".aw"
    },
    {
      "name_en": "Ascension Island",
      "label": "Ascensión Island",
      "value": "Ascensión Island",
      "continent_en": "Africa",
      "continent_es": "África",
      "capital_en": "Georgetown",
      "capital_es": "Georgetown",
      "dial_code": "+247",
      "code_2": "AC",
      "code_3": "ASC",
      "tld": ".ac"
    },
    {
      "name_en": "Australia",
      "label": "Australia",
      "value": "Australia",
      "continent_en": "Oceania",
      "continent_es": "Oceanía",
      "capital_en": "Canberra",
      "capital_es": "Canberra",
      "dial_code": "+61",
      "code_2": "AU",
      "code_3": "AUS",
      "tld": ".au"
    },
    {
      "name_en": "Austria",
      "label": "Austria",
      "value": "Austria",
      "continent_en": "Europe",
      "continent_es": "Europa",
      "capital_en": "Vienna",
      "capital_es": "Viena",
      "dial_code": "+43",
      "code_2": "AT",
      "code_3": "AUT",
      "tld": ".at"
    },
    {
      "name_en": "Azerbaijan",
      "label": "Azerbaiyán",
      "value": "Azerbaiyán",
      "continent_en": "Asia",
      "continent_es": "Asia",
      "capital_en": "Baku",
      "capital_es": "Bakú",
      "dial_code": "+994",
      "code_2": "AZ",
      "code_3": "AZE",
      "tld": ".az"
    },
    {
      "name_en": "Bahamas",
      "label": "Bahamas",
      "value": "Bahamas",
      "continent_en": "North America",
      "continent_es": "América del Norte",
      "capital_en": "Nassau",
      "capital_es": "Nassau",
      "dial_code": "+1242",
      "code_2": "BS",
      "code_3": "BHS",
      "tld": ".bs"
    },
    {
      "name_en": "Bahrain",
      "label": "Baréin",
      "value": "Baréin",
      "continent_en": "Asia",
      "continent_es": "Asia",
      "capital_en": "Manama",
      "capital_es": "Manama",
      "dial_code": "+973",
      "code_2": "BH",
      "code_3": "BHR",
      "tld": ".bh"
    },
    {
      "name_en": "Bangladesh",
      "label": "Bangladés",
      "value": "Bangladés",
      "continent_en": "Asia",
      "continent_es": "Asia",
      "capital_en": "Dhaka",
      "capital_es": "Daca",
      "dial_code": "+880",
      "code_2": "BD",
      "code_3": "BGD",
      "tld": ".bd"
    },
    {
      "name_en": "Barbados",
      "label": "Barbados",
      "value": "Barbados",
      "continent_en": "North America",
      "continent_es": "América del Norte",
      "capital_en": "Bridgetown",
      "capital_es": "Bridgetown",
      "dial_code": "+1246",
      "code_2": "BB",
      "code_3": "BRB",
      "tld": ".bb"
    },
    {
      "name_en": "Belarus",
      "label": "Bielorrusia",
      "value": "Bielorrusia",
      "continent_en": "Europe",
      "continent_es": "Europa",
      "capital_en": "Minsk",
      "capital_es": "Minsk",
      "dial_code": "+375",
      "code_2": "BY",
      "code_3": "BLR",
      "tld": ".by"
    },
    {
      "name_en": "Belgium",
      "label": "Bélgica",
      "value": "Bélgica",
      "continent_en": "Europe",
      "continent_es": "Europa",
      "capital_en": "Brussels",
      "capital_es": "Bruselas",
      "dial_code": "+32",
      "code_2": "BE",
      "code_3": "BEL",
      "tld": ".be"
    },
    {
      "name_en": "Belize",
      "label": "Belice",
      "value": "Belice",
      "continent_en": "North America",
      "continent_es": "América del Norte",
      "capital_en": "Belmopan",
      "capital_es": "Belmopán",
      "dial_code": "+501",
      "code_2": "BZ",
      "code_3": "BLZ",
      "tld": ".bz"
    },
    {
      "name_en": "Benin",
      "label": "Benin",
      "value": "Benin",
      "continent_en": "Africa",
      "continent_es": "África",
      "capital_en": "Porto-Novo",
      "capital_es": "Porto-Novo",
      "dial_code": "+229",
      "code_2": "BJ",
      "code_3": "BEN",
      "tld": ".bj"
    },
    {
      "name_en": "Bermuda",
      "label": "Bermudas",
      "value": "Bermudas",
      "continent_en": "North America",
      "continent_es": "América del Norte",
      "capital_en": "Hamilton",
      "capital_es": "Hamilton",
      "dial_code": "+1441",
      "code_2": "BM",
      "code_3": "BMU",
      "tld": ".bm"
    },
    {
      "name_en": "Bhutan",
      "label": "Bután",
      "value": "Bután",
      "continent_en": "Asia",
      "continent_es": "Asia",
      "capital_en": "Thimphu",
      "capital_es": "Timbu",
      "dial_code": "+975",
      "code_2": "BT",
      "code_3": "BTN",
      "tld": ".bt"
    },
    {
      "name_en": "Bolivia",
      "label": "Bolivia",
      "value": "Bolivia",
      "continent_en": "South America",
      "continent_es": "América del Sur",
      "capital_en": "Sucre",
      "capital_es": "Sucre",
      "dial_code": "+591",
      "code_2": "BO",
      "code_3": "BOL",
      "tld": ".bo"
    },
    {
      "name_en": "Bonaire",
      "label": "Bonaire",
      "value": "Bonaire",
      "continent_en": "North America",
      "continent_es": "América del Norte",
      "capital_en": "Kralendijk",
      "capital_es": "Kralendijk",
      "dial_code": "+599",
      "code_2": "BQ",
      "code_3": "BES",
      "tld": ".bq"
    },
    {
      "name_en": "Bosnia and Herzegovina",
      "label": "Bosnia y Herzegovina",
      "value": "Bosnia y Herzegovina",
      "continent_en": "Europe",
      "continent_es": "Europa",
      "capital_en": "Sarajevo",
      "capital_es": "Sarajevo",
      "dial_code": "+387",
      "code_2": "BA",
      "code_3": "BIH",
      "tld": ".ba"
    },
    {
      "name_en": "Botswana",
      "label": "Botsuana",
      "value": "Botsuana",
      "continent_en": "Africa",
      "continent_es": "África",
      "capital_en": "Gaborone",
      "capital_es": "Gaborone",
      "dial_code": "+267",
      "code_2": "BW",
      "code_3": "BWA",
      "tld": ".bw"
    },
    {
      "name_en": "Brazil",
      "label": "Brasil",
      "value": "Brasil",
      "continent_en": "South America",
      "continent_es": "América del Sur",
      "capital_en": "Brasilia",
      "capital_es": "Brasilia",
      "dial_code": "+55",
      "code_2": "BR",
      "code_3": "BRA",
      "tld": ".br"
    },
    {
      "name_en": "British Indian Ocean Territory",
      "label": "Territorio Británico del Océano Índico",
      "value": "Territorio Británico del Océano Índico",
      "continent_en": "Asia",
      "continent_es": "Asia",
      "capital_en": "Diego Garcia",
      "capital_es": "Diego García",
      "dial_code": "+246",
      "code_2": "IO",
      "code_3": "IOT",
      "tld": ".io"
    },
    {
      "name_en": "Brunei Darussalam",
      "label": "Brunéi",
      "value": "Brunéi",
      "continent_en": "Asia",
      "continent_es": "Asia",
      "capital_en": "Bandar Seri Begawan",
      "capital_es": "Bandar Seri Begawan",
      "dial_code": "+673",
      "code_2": "BN",
      "code_3": "BRN",
      "tld": ".bn"
    },
    {
      "name_en": "Bulgaria",
      "label": "Bulgaria",
      "value": "Bulgaria",
      "continent_en": "Europe",
      "continent_es": "Europa",
      "capital_en": "Sofia",
      "capital_es": "Sofía",
      "dial_code": "+359",
      "code_2": "BG",
      "code_3": "BGR",
      "tld": ".bg"
    },
    {
      "name_en": "Burkina Faso",
      "label": "Burkina Faso",
      "value": "Burkina Faso",
      "continent_en": "Africa",
      "continent_es": "África",
      "capital_en": "Ouagadougou",
      "capital_es": "Uagadugú",
      "dial_code": "+226",
      "code_2": "BF",
      "code_3": "BFA",
      "tld": ".bf"
    },
    {
      "name_en": "Burundi",
      "label": "Burundi",
      "value": "Burundi",
      "continent_en": "Africa",
      "continent_es": "África",
      "capital_en": "Bujumbura",
      "capital_es": "Bujumbura",
      "dial_code": "+257",
      "code_2": "BI",
      "code_3": "BDI",
      "tld": ".bi"
    },
    {
      "name_en": "Cambodia",
      "label": "Camboya",
      "value": "Camboya",
      "continent_en": "Asia",
      "continent_es": "Asia",
      "capital_en": "Phnom Penh",
      "capital_es": "Phnom Penh",
      "dial_code": "+855",
      "code_2": "KH",
      "code_3": "KHM",
      "tld": ".kh"
    },
    {
      "name_en": "Cameroon",
      "label": "Camerún",
      "value": "Camerún",
      "continent_en": "Africa",
      "continent_es": "África",
      "capital_en": "Yaounde",
      "capital_es": "Yaundé",
      "dial_code": "+237",
      "code_2": "CM",
      "code_3": "CMR",
      "tld": ".cm"
    },
    {
      "name_en": "Canada",
      "label": "Canadá",
      "value": "Canadá",
      "continent_en": "North America",
      "continent_es": "América del Norte",
      "capital_en": "Ottawa",
      "capital_es": "Ottawa",
      "dial_code": "+1",
      "code_2": "CA",
      "code_3": "CAN",
      "tld": ".ca"
    },
    {
      "name_en": "Cape Verde",
      "label": "Cabo Verde",
      "value": "Cabo Verde",
      "continent_en": "Africa",
      "continent_es": "África",
      "capital_en": "Praia",
      "capital_es": "Praia",
      "dial_code": "+238",
      "code_2": "CV",
      "code_3": "CPV",
      "tld": ".cv"
    },
    {
      "name_en": "Cayman Islands",
      "label": "Islas Caimán",
      "value": "Islas Caimán",
      "continent_en": "North America",
      "continent_es": "América del Norte",
      "capital_en": "George Town",
      "capital_es": "George Town",
      "dial_code": "+1345",
      "code_2": "KY",
      "code_3": "CYM",
      "tld": ".ky"
    },
    {
      "name_en": "Central African Republic",
      "label": "República Centroafricana",
      "value": "República Centroafricana",
      "continent_en": "Africa",
      "continent_es": "África",
      "capital_en": "Bangui",
      "capital_es": "Bangui",
      "dial_code": "+236",
      "code_2": "CF",
      "code_3": "CAF",
      "tld": ".cf"
    },
    {
      "name_en": "Chad",
      "label": "Chad",
      "value": "Chad",
      "continent_en": "Africa",
      "continent_es": "África",
      "capital_en": "N'Djamena",
      "capital_es": "N'Djamena",
      "dial_code": "+235",
      "code_2": "TD",
      "code_3": "TCD",
      "tld": ".td"
    },
    {
      "name_en": "Chile",
      "label": "Chile",
      "value": "Chile",
      "continent_en": "South America",
      "continent_es": "América del Sur",
      "capital_en": "Santiago",
      "capital_es": "Santiago",
      "dial_code": "+56",
      "code_2": "CL",
      "code_3": "CHL",
      "tld": ".cl"
    },
    {
      "name_en": "China",
      "label": "China",
      "value": "China",
      "continent_en": "Asia",
      "continent_es": "Asia",
      "capital_en": "Beijing",
      "capital_es": "Pekín",
      "dial_code": "+86",
      "code_2": "CN",
      "code_3": "CHN",
      "tld": ".cn"
    },
    {
      "name_en": "Christmas Island",
      "label": "Isla de Navidad",
      "value": "Isla de Navidad",
      "continent_en": "Asia",
      "continent_es": "Asia",
      "capital_en": "Flying Fish Cove",
      "capital_es": "Flying Fish Cove",
      "dial_code": "+61",
      "code_2": "CX",
      "code_3": "CXR",
      "tld": ".cx"
    },
    {
      "name_en": "Cocos (Keeling) Islands",
      "label": "Islas Cocos",
      "value": "Islas Cocos",
      "continent_en": "Asia",
      "continent_es": "Asia",
      "capital_en": "West Island",
      "capital_es": "West Island",
      "dial_code": "+61",
      "code_2": "CC",
      "code_3": "CCK",
      "tld": ".cc"
    },
    {
      "name_en": "Colombia",
      "label": "Colombia",
      "value": "Colombia",
      "continent_en": "South America",
      "continent_es": "América del Sur",
      "capital_en": "Bogota",
      "capital_es": "Bogotá",
      "dial_code": "+57",
      "code_2": "CO",
      "code_3": "COL",
      "tld": ".co"
    },
    {
      "name_en": "Comoros",
      "label": "Comoras",
      "value": "Comoras",
      "continent_en": "Africa",
      "continent_es": "África",
      "capital_en": "Moroni",
      "capital_es": "Moroni",
      "dial_code": "+269",
      "code_2": "KM",
      "code_3": "COM",
      "tld": ".km"
    },
    {
      "name_en": "Congo",
      "label": "Congo",
      "value": "Congo",
      "continent_en": "Africa",
      "continent_es": "África",
      "capital_en": "Brazzaville",
      "capital_es": "Brazzaville",
      "dial_code": "+242",
      "code_2": "CG",
      "code_3": "COG",
      "tld": ".cg"
    },
    {
      "name_en": "Cook Islands",
      "label": "Islas Cook",
      "value": "Islas Cook",
      "continent_en": "Oceania",
      "continent_es": "Oceanía",
      "capital_en": "Avarua",
      "capital_es": "Avarua",
      "dial_code": "+682",
      "code_2": "CK",
      "code_3": "COK",
      "tld": ".ck"
    },
    {
      "name_en": "Costa Rica",
      "label": "Costa Rica",
      "value": "Costa Rica",
      "continent_en": "North America",
      "continent_es": "América del Norte",
      "capital_en": "San Jose",
      "capital_es": "San José",
      "dial_code": "+506",
      "code_2": "CR",
      "code_3": "CRI",
      "tld": ".cr"
    },
    {
      "name_en": "Croatia",
      "label": "Croacia",
      "value": "Croacia",
      "continent_en": "Europe",
      "continent_es": "Europa",
      "capital_en": "Zagreb",
      "capital_es": "Zagreb",
      "dial_code": "+385",
      "code_2": "HR",
      "code_3": "HRV",
      "tld": ".hr"
    },
    {
      "name_en": "Cuba",
      "label": "Cuba",
      "value": "Cuba",
      "continent_en": "North America",
      "continent_es": "América del Norte",
      "capital_en": "Havana",
      "capital_es": "La Habana",
      "dial_code": "+53",
      "code_2": "CU",
      "code_3": "CUB",
      "tld": ".cu"
    },
    {
      "name_en": "Curaçao",
      "label": "Curazao",
      "value": "Curazao",
      "continent_en": "North America",
      "continent_es": "América del Norte",
      "capital_en": "Willemstad",
      "capital_es": "Willemstad",
      "dial_code": "+599",
      "code_2": "CW",
      "code_3": "CUW",
      "tld": ".cw"
    },
    {
      "name_en": "Cyprus",
      "label": "Chipre",
      "value": "Chipre",
      "continent_en": "Europe",
      "continent_es": "Europa",
      "capital_en": "Nicosia",
      "capital_es": "Nicosia",
      "dial_code": "+357",
      "code_2": "CY",
      "code_3": "CYP",
      "tld": ".cy"
    },
    {
      "name_en": "Czechia",
      "label": "Chequia",
      "value": "Chequia",
      "continent_en": "Europe",
      "continent_es": "Europa",
      "capital_en": "Prague",
      "capital_es": "Praga",
      "dial_code": "+420",
      "code_2": "CZ",
      "code_3": "CZE",
      "tld": ".cz"
    },
    {
      "name_en": "Côte d'Ivoire",
      "label": "Costa de Marfil",
      "value": "Costa de Marfil",
      "continent_en": "Africa",
      "continent_es": "África",
      "capital_en": "Yamoussoukro",
      "capital_es": "Yamoussoukro",
      "dial_code": "+225",
      "code_2": "CI",
      "code_3": "CIV",
      "tld": ".ci"
    },
    {
      "name_en": "Denmark",
      "label": "Dinamarca",
      "value": "Dinamarca",
      "continent_en": "Europe",
      "continent_es": "Europa",
      "capital_en": "Copenhagen",
      "capital_es": "Copenhague",
      "dial_code": "+45",
      "code_2": "DK",
      "code_3": "DNK",
      "tld": ".dk"
    },
    {
      "name_en": "Djibouti",
      "label": "Yibuti",
      "value": "Yibuti",
      "continent_en": "Africa",
      "continent_es": "África",
      "capital_en": "Djibouti",
      "capital_es": "Yibuti",
      "dial_code": "+253",
      "code_2": "DJ",
      "code_3": "DJI",
      "tld": ".dj"
    },
    {
      "name_en": "Dominica",
      "label": "Dominica",
      "value": "Dominica",
      "continent_en": "North America",
      "continent_es": "América del Norte",
      "capital_en": "Roseau",
      "capital_es": "Roseau",
      "dial_code": "+1767",
      "code_2": "DM",
      "code_3": "DMA",
      "tld": ".dm"
    },
    {
      "name_en": "Dominican Republic",
      "label": "República Dominicana",
      "value": "República Dominicana",
      "continent_en": "North America",
      "continent_es": "América del Norte",
      "capital_en": "Santo Domingo",
      "capital_es": "Santo Domingo",
      "dial_code": "+1849",
      "code_2": "DO",
      "code_3": "DOM",
      "tld": ".do"
    },
    {
      "name_en": "Ecuador",
      "label": "Ecuador",
      "value": "Ecuador",
      "continent_en": "South America",
      "continent_es": "América del Sur",
      "capital_en": "Quito",
      "capital_es": "Quito",
      "dial_code": "+593",
      "code_2": "EC",
      "code_3": "ECU",
      "tld": ".ec"
    },
    {
      "name_en": "Egypt",
      "label": "Egipto",
      "value": "Egipto",
      "continent_en": "Africa",
      "continent_es": "África",
      "capital_en": "Cairo",
      "capital_es": "El Cairo",
      "dial_code": "+20",
      "code_2": "EG",
      "code_3": "EGY",
      "tld": ".eg"
    },
    {
      "name_en": "El Salvador",
      "label": "El Salvador",
      "value": "El Salvador",
      "continent_en": "North America",
      "continent_es": "América del Norte",
      "capital_en": "San Salvador",
      "capital_es": "San Salvador",
      "dial_code": "+503",
      "code_2": "SV",
      "code_3": "SLV",
      "tld": ".sv"
    },
    {
      "name_en": "Equatorial Guinea",
      "label": "Guinea Ecuatorial",
      "value": "Guinea Ecuatorial",
      "continent_en": "Africa",
      "continent_es": "África",
      "capital_en": "Malabo",
      "capital_es": "Malabo",
      "dial_code": "+240",
      "code_2": "GQ",
      "code_3": "GNQ",
      "tld": ".gq"
    },
    {
      "name_en": "Eritrea",
      "label": "Eritrea",
      "value": "Eritrea",
      "continent_en": "Africa",
      "continent_es": "África",
      "capital_en": "Asmara",
      "capital_es": "Asmara",
      "dial_code": "+291",
      "code_2": "ER",
      "code_3": "ERI",
      "tld": ".er"
    },
    {
      "name_en": "Estonia",
      "label": "Estonia",
      "value": "Estonia",
      "continent_en": "Europe",
      "continent_es": "Europa",
      "capital_en": "Tallinn",
      "capital_es": "Tallin",
      "dial_code": "+372",
      "code_2": "EE",
      "code_3": "EST",
      "tld": ".ee"
    },
    {
      "name_en": "Eswatini",
      "label": "Suazilandia",
      "value": "Suazilandia",
      "continent_en": "Africa",
      "continent_es": "África",
      "capital_en": "Mbabane",
      "capital_es": "Mbabane",
      "dial_code": "+268",
      "code_2": "SZ",
      "code_3": "SWZ",
      "tld": ".sz"
    },
    {
      "name_en": "Ethiopia",
      "label": "Etiopía",
      "value": "Etiopía",
      "continent_en": "Africa",
      "continent_es": "África",
      "capital_en": "Addis Ababa",
      "capital_es": "Adís Abeba",
      "dial_code": "+251",
      "code_2": "ET",
      "code_3": "ETH",
      "tld": ".et"
    },
    {
      "name_en": "Falkland Islands (Malvinas)",
      "label": "Islas Malvinas",
      "value": "Islas Malvinas",
      "continent_en": "South America",
      "continent_es": "América del Sur",
      "capital_en": "Stanley",
      "capital_es": "Stanley",
      "dial_code": "+500",
      "code_2": "FK",
      "code_3": "FLK",
      "tld": ".fk"
    },
    {
      "name_en": "Faroe Islands",
      "label": "Islas Feroe",
      "value": "Islas Feroe",
      "continent_en": "Europe",
      "continent_es": "Europa",
      "capital_en": "Tórshavn",
      "capital_es": "Tórshavn",
      "dial_code": "+298",
      "code_2": "FO",
      "code_3": "FRO",
      "tld": ".fo"
    },
    {
      "name_en": "Fiji",
      "label": "Fiyi",
      "value": "Fiyi",
      "continent_en": "Oceania",
      "continent_es": "Oceanía",
      "capital_en": "Suva",
      "capital_es": "Suva",
      "dial_code": "+679",
      "code_2": "FJ",
      "code_3": "FJI",
      "tld": ".fj"
    },
    {
      "name_en": "Finland",
      "label": "Finlandia",
      "value": "Finlandia",
      "continent_en": "Europe",
      "continent_es": "Europa",
      "capital_en": "Helsinki",
      "capital_es": "Helsinki",
      "dial_code": "+358",
      "code_2": "FI",
      "code_3": "FIN",
      "tld": ".fi"
    },
    {
      "name_en": "France",
      "label": "Francia",
      "value": "Francia",
      "continent_en": "Europe",
      "continent_es": "Europa",
      "capital_en": "Paris",
      "capital_es": "París",
      "dial_code": "+33",
      "code_2": "FR",
      "code_3": "FRA",
      "tld": ".fr"
    },
    {
      "name_en": "French Guiana",
      "label": "Guayana Francesa",
      "value": "Guayana Francesa",
      "continent_en": "South America",
      "continent_es": "América del Sur",
      "capital_en": "Cayenne",
      "capital_es": "Cayena",
      "dial_code": "+594",
      "code_2": "GF",
      "code_3": "GUF",
      "tld": ".gf"
    },
    {
      "name_en": "French Polynesia",
      "label": "Polinesia Francesa",
      "value": "Polinesia Francesa",
      "continent_en": "Oceania",
      "continent_es": "Oceanía",
      "capital_en": "Papeete",
      "capital_es": "Papeete",
      "dial_code": "+689",
      "code_2": "PF",
      "code_3": "PYF",
      "tld": ".pf"
    },
    {
      "name_en": "French Southern Territories",
      "label": "Territorios Australes Franceses",
      "value": "Territorios Australes Franceses",
      "continent_en": "Antarctica",
      "continent_es": "Antártida",
      "capital_en": "Port-aux-Français",
      "capital_es": "Port-aux-Français",
      "dial_code": "+262",
      "code_2": "TF",
      "code_3": "ATF",
      "tld": ".tf"
    },
    {
      "name_en": "Gabon",
      "label": "Gabón",
      "value": "Gabón",
      "continent_en": "Africa",
      "continent_es": "África",
      "capital_en": "Libreville",
      "capital_es": "Libreville",
      "dial_code": "+241",
      "code_2": "GA",
      "code_3": "GAB",
      "tld": ".ga"
    },
    {
      "name_en": "Gambia",
      "label": "Gambia",
      "value": "Gambia",
      "continent_en": "Africa",
      "continent_es": "África",
      "capital_en": "Banjul",
      "capital_es": "Banjul",
      "dial_code": "+220",
      "code_2": "GM",
      "code_3": "GMB",
      "tld": ".gm"
    },
    {
      "name_en": "Georgia",
      "label": "Georgia",
      "value": "Georgia",
      "continent_en": "Asia",
      "continent_es": "Asia",
      "capital_en": "Tbilisi",
      "capital_es": "Tiflis",
      "dial_code": "+995",
      "code_2": "GE",
      "code_3": "GEO",
      "tld": ".ge"
    },
    {
      "name_en": "Germany",
      "label": "Alemania",
      "value": "Alemania",
      "continent_en": "Europe",
      "continent_es": "Europa",
      "capital_en": "Berlin",
      "capital_es": "Berlín",
      "dial_code": "+49",
      "code_2": "DE",
      "code_3": "DEU",
      "tld": ".de"
    },
    {
      "name_en": "Ghana",
      "label": "Ghana",
      "value": "Ghana",
      "continent_en": "Africa",
      "continent_es": "África",
      "capital_en": "Accra",
      "capital_es": "Acra",
      "dial_code": "+233",
      "code_2": "GH",
      "code_3": "GHA",
      "tld": ".gh"
    },
    {
      "name_en": "Gibraltar",
      "label": "Gibraltar",
      "value": "Gibraltar",
      "continent_en": "Europe",
      "continent_es": "Europa",
      "capital_en": "Gibraltar",
      "capital_es": "Gibraltar",
      "dial_code": "+350",
      "code_2": "GI",
      "code_3": "GIB",
      "tld": ".gi"
    },
    {
      "name_en": "Greece",
      "label": "Grecia",
      "value": "Grecia",
      "continent_en": "Europe",
      "continent_es": "Europa",
      "capital_en": "Athens",
      "capital_es": "Atenas",
      "dial_code": "+30",
      "code_2": "GR",
      "code_3": "GRC",
      "tld": ".gr"
    },
    {
      "name_en": "Greenland",
      "label": "Groenlandia",
      "value": "Groenlandia",
      "continent_en": "North America",
      "continent_es": "América del Norte",
      "capital_en": "Nuuk",
      "capital_es": "Nuuk",
      "dial_code": "+299",
      "code_2": "GL",
      "code_3": "GRL",
      "tld": ".gl"
    },
    {
      "name_en": "Grenada",
      "label": "Granada",
      "value": "Granada",
      "continent_en": "North America",
      "continent_es": "América del Norte",
      "capital_en": "St. George's",
      "capital_es": "St. George's",
      "dial_code": "+1473",
      "code_2": "GD",
      "code_3": "GRD",
      "tld": ".gd"
    },
    {
      "name_en": "Guadeloupe",
      "label": "Guadalupe",
      "value": "Guadalupe",
      "continent_en": "North America",
      "continent_es": "América del Norte",
      "capital_en": "Basse-Terre",
      "capital_es": "Basse-Terre",
      "dial_code": "+590",
      "code_2": "GP",
      "code_3": "GLP",
      "tld": ".gp"
    },
    {
      "name_en": "Guam",
      "label": "Guam",
      "value": "Guam",
      "continent_en": "Oceania",
      "continent_es": "Oceanía",
      "capital_en": "Hagåtña",
      "capital_es": "Hagåtña",
      "dial_code": "+1671",
      "code_2": "GU",
      "code_3": "GUM",
      "tld": ".gu"
    },
    {
      "name_en": "Guatemala",
      "label": "Guatemala",
      "value": "Guatemala",
      "continent_en": "North America",
      "continent_es": "América del Norte",
      "capital_en": "Guatemala City",
      "capital_es": "Ciudad de Guatemala",
      "dial_code": "+502",
      "code_2": "GT",
      "code_3": "GTM",
      "tld": ".gt"
    },
    {
      "name_en": "Guernsey",
      "label": "Guernsey",
      "value": "Guernsey",
      "continent_en": "Europe",
      "continent_es": "Europa",
      "capital_en": "St. Peter Port",
      "capital_es": "St. Peter Port",
      "dial_code": "+44",
      "code_2": "GG",
      "code_3": "GGY",
      "tld": ".gg"
    },
    {
      "name_en": "Guinea",
      "label": "Guinea",
      "value": "Guinea",
      "continent_en": "Africa",
      "continent_es": "África",
      "capital_en": "Conakry",
      "capital_es": "Conakry",
      "dial_code": "+224",
      "code_2": "GN",
      "code_3": "GIN",
      "tld": ".gn"
    },
    {
      "name_en": "Guinea-Bissau",
      "label": "Guinea-Bissau",
      "value": "Guinea-Bissau",
      "continent_en": "Africa",
      "continent_es": "África",
      "capital_en": "Bissau",
      "capital_es": "Bissau",
      "dial_code": "+245",
      "code_2": "GW",
      "code_3": "GNB",
      "tld": ".gw"
    },
    {
      "name_en": "Guyana",
      "label": "Guyana",
      "value": "Guyana",
      "continent_en": "South America",
      "continent_es": "América del Sur",
      "capital_en": "Georgetown",
      "capital_es": "Georgetown",
      "dial_code": "+592",
      "code_2": "GY",
      "code_3": "GUY",
      "tld": ".gy"
    },
    {
      "name_en": "Haiti",
      "label": "Haití",
      "value": "Haití",
      "continent_en": "North America",
      "continent_es": "América del Norte",
      "capital_en": "Port-au-Prince",
      "capital_es": "Puerto Príncipe",
      "dial_code": "+509",
      "code_2": "HT",
      "code_3": "HTI",
      "tld": ".ht"
    },
    {
      "name_en": "Heard Island and McDonald Islands",
      "label": "Islas Heard y McDonald",
      "value": "Islas Heard y McDonald",
      "continent_en": "Antarctica",
      "continent_es": "Antártida",
      "capital_en": "",
      "capital_es": "",
      "dial_code": "+672",
      "code_2": "HM",
      "code_3": "HMD",
      "tld": ".hm"
    },
    {
      "name_en": "Honduras",
      "label": "Honduras",
      "value": "Honduras",
      "continent_en": "North America",
      "continent_es": "América del Norte",
      "capital_en": "Tegucigalpa",
      "capital_es": "Tegucigalpa",
      "dial_code": "+504",
      "code_2": "HN",
      "code_3": "HND",
      "tld": ".hn"
    },
    {
      "name_en": "Hong Kong",
      "label": "Hong Kong",
      "value": "Hong Kong",
      "continent_en": "Asia",
      "continent_es": "Asia",
      "capital_en": "Hong Kong",
      "capital_es": "Hong Kong",
      "dial_code": "+852",
      "code_2": "HK",
      "code_3": "HKG",
      "tld": ".hk"
    },
    {
      "name_en": "Hungary",
      "label": "Hungría",
      "value": "Hungría",
      "continent_en": "Europe",
      "continent_es": "Europa",
      "capital_en": "Budapest",
      "capital_es": "Budapest",
      "dial_code": "+36",
      "code_2": "HU",
      "code_3": "HUN",
      "tld": ".hu"
    },
    {
      "name_en": "Iceland",
      "label": "Islandia",
      "value": "Islandia",
      "continent_en": "Europe",
      "continent_es": "Europa",
      "capital_en": "Reykjavik",
      "capital_es": "Reykjavik",
      "dial_code": "+354",
      "code_2": "IS",
      "code_3": "ISL",
      "tld": ".is"
    },
    {
      "name_en": "India",
      "label": "India",
      "value": "India",
      "continent_en": "Asia",
      "continent_es": "Asia",
      "capital_en": "New Delhi",
      "capital_es": "Nueva Delhi",
      "dial_code": "+91",
      "code_2": "IN",
      "code_3": "IND",
      "tld": ".in"
    },
    {
      "name_en": "Indonesia",
      "label": "Indonesia",
      "value": "Indonesia",
      "continent_en": "Asia",
      "continent_es": "Asia",
      "capital_en": "Jakarta",
      "capital_es": "Yakarta",
      "dial_code": "+62",
      "code_2": "ID",
      "code_3": "IDN",
      "tld": ".id"
    },
    {
      "name_en": "Iran, Islamic Republic of Persian Gulf",
      "label": "Irán, República Islámica del Golfo Pérsico",
      "value": "Irán, República Islámica del Golfo Pérsico",
      "continent_en": "Asia",
      "continent_es": "Asia",
      "capital_en": "Tehran",
      "capital_es": "Teherán",
      "dial_code": "+98",
      "code_2": "IR",
      "code_3": "IRN",
      "tld": ".ir"
    },
    {
      "name_en": "Iraq",
      "label": "Irak",
      "value": "Irak",
      "continent_en": "Asia",
      "continent_es": "Asia",
      "capital_en": "Baghdad",
      "capital_es": "Bagdad",
      "dial_code": "+964",
      "code_2": "IQ",
      "code_3": "IRQ",
      "tld": ".iq"
    },
    {
      "name_en": "Ireland",
      "label": "Irlanda",
      "value": "Irlanda",
      "continent_en": "Europe",
      "continent_es": "Europa",
      "capital_en": "Dublin",
      "capital_es": "Dublín",
      "dial_code": "+353",
      "code_2": "IE",
      "code_3": "IRL",
      "tld": ".ie"
    },
    {
      "name_en": "Isle of Man",
      "label": "Isla de Man",
      "value": "Isla de Man",
      "continent_en": "Europe",
      "continent_es": "Europa",
      "capital_en": "Douglas",
      "capital_es": "Douglas",
      "dial_code": "+44",
      "code_2": "IM",
      "code_3": "IMN",
      "tld": ".im"
    },
    {
      "name_en": "Israel",
      "label": "Israel",
      "value": "Israel",
      "continent_en": "Asia",
      "continent_es": "Asia",
      "capital_en": "Jerusalem",
      "capital_es": "Jerusalén",
      "dial_code": "+972",
      "code_2": "IL",
      "code_3": "ISR",
      "tld": ".il"
    },
    {
      "name_en": "Italy",
      "label": "Italia",
      "value": "Italia",
      "continent_en": "Europe",
      "continent_es": "Europa",
      "capital_en": "Rome",
      "capital_es": "Roma",
      "dial_code": "+39",
      "code_2": "IT",
      "code_3": "ITA",
      "tld": ".it"
    },
    {
      "name_en": "Jamaica",
      "label": "Jamaica",
      "value": "Jamaica",
      "continent_en": "North America",
      "continent_es": "América del Norte",
      "capital_en": "Kingston",
      "capital_es": "Kingston",
      "dial_code": "+1 876",
      "code_2": "JM",
      "code_3": "JAM",
      "tld": ".jm"
    },
    {
      "name_en": "Japan",
      "label": "Japón",
      "value": "Japón",
      "continent_en": "Asia",
      "continent_es": "Asia",
      "capital_en": "Tokyo",
      "capital_es": "Tokio",
      "dial_code": "+81",
      "code_2": "JP",
      "code_3": "JPN",
      "tld": ".jp"
    },
    {
      "name_en": "Jersey",
      "label": "Jersey",
      "value": "Jersey",
      "continent_en": "Europe",
      "continent_es": "Europa",
      "capital_en": "Saint Helier",
      "capital_es": "Saint Helier",
      "dial_code": "+44",
      "code_2": "JE",
      "code_3": "JEY",
      "tld": ".je"
    },
    {
      "name_en": "Jordan",
      "label": "Jordania",
      "value": "Jordania",
      "continent_en": "Asia",
      "continent_es": "Asia",
      "capital_en": "Amman",
      "capital_es": "Amán",
      "dial_code": "+962",
      "code_2": "JO",
      "code_3": "JOR",
      "tld": ".jo"
    },
    {
      "name_en": "Kazakhstan",
      "label": "Kazajistán",
      "value": "Kazajistán",
      "continent_en": "Asia",
      "continent_es": "Asia",
      "capital_en": "Astana",
      "capital_es": "Astana",
      "dial_code": "+7 7",
      "code_2": "KZ",
      "code_3": "KAZ",
      "tld": ".kz"
    },
    {
      "name_en": "Kenya",
      "label": "Kenia",
      "value": "Kenia",
      "continent_en": "Africa",
      "continent_es": "África",
      "capital_en": "Nairobi",
      "capital_es": "Nairobi",
      "dial_code": "+254",
      "code_2": "KE",
      "code_3": "KEN",
      "tld": ".ke"
    },
    {
      "name_en": "Kiribati",
      "label": "Kiribati",
      "value": "Kiribati",
      "continent_en": "Oceania",
      "continent_es": "Oceanía",
      "capital_en": "South Tarawa",
      "capital_es": "Sur Tarawa",
      "dial_code": "+686",
      "code_2": "KI",
      "code_3": "KIR",
      "tld": ".ki"
    },
    {
      "name_en": "Kosovo",
      "label": "Kosovo",
      "value": "Kosovo",
      "continent_en": "Europe",
      "continent_es": "Europa",
      "capital_en": "Pristina",
      "capital_es": "Pristina",
      "dial_code": "+383",
      "code_2": "XK",
      "code_3": "XKX",
      "tld": ".xk"
    },
    {
      "name_en": "Kuwait",
      "label": "Kuwait",
      "value": "Kuwait",
      "continent_en": "Asia",
      "continent_es": "Asia",
      "capital_en": "Kuwait City",
      "capital_es": "Kuwait City",
      "dial_code": "+965",
      "code_2": "KW",
      "code_3": "KWT",
      "tld": ".kw"
    },
    {
      "name_en": "Kyrgyzstan",
      "label": "Kirguistán",
      "value": "Kirguistán",
      "continent_en": "Asia",
      "continent_es": "Asia",
      "capital_en": "Bishkek",
      "capital_es": "Bishkek",
      "dial_code": "+996",
      "code_2": "KG",
      "code_3": "KGZ",
      "tld": ".kg"
    },
    {
      "name_en": "Laos",
      "label": "Laos",
      "value": "Laos",
      "continent_en": "Asia",
      "continent_es": "Asia",
      "capital_en": "Vientiane",
      "capital_es": "Vientiane",
      "dial_code": "+856",
      "code_2": "LA",
      "code_3": "LAO",
      "tld": ".la"
    },
    {
      "name_en": "Latvia",
      "label": "Letonia",
      "value": "Letonia",
      "continent_en": "Europe",
      "continent_es": "Europa",
      "capital_en": "Riga",
      "capital_es": "Riga",
      "dial_code": "+371",
      "code_2": "LV",
      "code_3": "LVA",
      "tld": ".lv"
    },
    {
      "name_en": "Lebanon",
      "label": "Líbano",
      "value": "Líbano",
      "continent_en": "Asia",
      "continent_es": "Asia",
      "capital_en": "Beirut",
      "capital_es": "Beirut",
      "dial_code": "+961",
      "code_2": "LB",
      "code_3": "LBN",
      "tld": ".lb"
    },
    {
      "name_en": "Lesotho",
      "label": "Lesoto",
      "value": "Lesoto",
      "continent_en": "Africa",
      "continent_es": "África",
      "capital_en": "Maseru",
      "capital_es": "Maseru",
      "dial_code": "+266",
      "code_2": "LS",
      "code_3": "LSO",
      "tld": ".ls"
    },
    {
      "name_en": "Liberia",
      "label": "Liberia",
      "value": "Liberia",
      "continent_en": "Africa",
      "continent_es": "África",
      "capital_en": "Monrovia",
      "capital_es": "Monrovia",
      "dial_code": "+231",
      "code_2": "LR",
      "code_3": "LBR",
      "tld": ".lr"
    },
    {
      "name_en": "Libya",
      "label": "Libia",
      "value": "Libia",
      "continent_en": "Africa",
      "continent_es": "África",
      "capital_en": "Tripoli",
      "capital_es": "Trípoli",
      "dial_code": "+218",
      "code_2": "LY",
      "code_3": "LBY",
      "tld": ".ly"
    },
    {
      "name_en": "Liechtenstein",
      "label": "Liechtenstein",
      "value": "Liechtenstein",
      "continent_en": "Europe",
      "continent_es": "Europa",
      "capital_en": "Vaduz",
      "capital_es": "Vaduz",
      "dial_code": "+423",
      "code_2": "LI",
      "code_3": "LIE",
      "tld": ".li"
    },
    {
      "name_en": "Lithuania",
      "label": "Lituania",
      "value": "Lituania",
      "continent_en": "Europe",
      "continent_es": "Europa",
      "capital_en": "Vilnius",
      "capital_es": "Vilna",
      "dial_code": "+370",
      "code_2": "LT",
      "code_3": "LTU",
      "tld": ".lt"
    },
    {
      "name_en": "Luxembourg",
      "label": "Luxemburgo",
      "value": "Luxemburgo",
      "continent_en": "Europe",
      "continent_es": "Europa",
      "capital_en": "Luxembourg",
      "capital_es": "Luxemburgo",
      "dial_code": "+352",
      "code_2": "LU",
      "code_3": "LUX",
      "tld": ".lu"
    },
    {
      "name_en": "Macao",
      "label": "Macao",
      "value": "Macao",
      "continent_en": "Asia",
      "continent_es": "Asia",
      "capital_en": "Macao",
      "capital_es": "Macao",
      "dial_code": "+853",
      "code_2": "MO",
      "code_3": "MAC",
      "tld": ".mo"
    },
    {
      "name_en": "Macedonia",
      "label": "Macedonia",
      "value": "Macedonia",
      "continent_en": "Europe",
      "continent_es": "Europa",
      "capital_en": "Skopje",
      "capital_es": "Skopje",
      "dial_code": "+389",
      "code_2": "MK",
      "code_3": "MKD",
      "tld": ".mk"
    },
    {
      "name_en": "Madagascar",
      "label": "Madagascar",
      "value": "Madagascar",
      "continent_en": "Africa",
      "continent_es": "África",
      "capital_en": "Antananarivo",
      "capital_es": "Antananarivo",
      "dial_code": "+261",
      "code_2": "MG",
      "code_3": "MDG",
      "tld": ".mg"
    },
    {
      "name_en": "Malawi",
      "label": "Malawi",
      "value": "Malawi",
      "continent_en": "Africa",
      "continent_es": "África",
      "capital_en": "Lilongwe",
      "capital_es": "Lilongwe",
      "dial_code": "+265",
      "code_2": "MW",
      "code_3": "MWI",
      "tld": ".mw"
    },
    {
      "name_en": "Malaysia",
      "label": "Malasia",
      "value": "Malasia",
      "continent_en": "Asia",
      "continent_es": "Asia",
      "capital_en": "Kuala Lumpur",
      "capital_es": "Kuala Lumpur",
      "dial_code": "+60",
      "code_2": "MY",
      "code_3": "MYS",
      "tld": ".my"
    },
    {
      "name_en": "Maldives",
      "label": "Maldivas",
      "value": "Maldivas",
      "continent_en": "Asia",
      "continent_es": "Asia",
      "capital_en": "Malé",
      "capital_es": "Malé",
      "dial_code": "+960",
      "code_2": "MV",
      "code_3": "MDV",
      "tld": ".mv"
    },
    {
      "name_en": "Mali",
      "label": "Mali",
      "value": "Mali",
      "continent_en": "Africa",
      "continent_es": "África",
      "capital_en": "Bamako",
      "capital_es": "Bamako",
      "dial_code": "+223",
      "code_2": "ML",
      "code_3": "MLI",
      "tld": ".ml"
    },
    {
      "name_en": "Malta",
      "label": "Malta",
      "value": "Malta",
      "continent_en": "Europe",
      "continent_es": "Europa",
      "capital_en": "Valletta",
      "capital_es": "La Valeta",
      "dial_code": "+356",
      "code_2": "MT",
      "code_3": "MLT",
      "tld": ".mt"
    },
    {
      "name_en": "Marshall Islands",
      "label": "Islas Marshall",
      "value": "Islas Marshall",
      "continent_en": "Oceania",
      "continent_es": "Oceanía",
      "capital_en": "Majuro",
      "capital_es": "Majuro",
      "dial_code": "+692",
      "code_2": "MH",
      "code_3": "MHL",
      "tld": ".mh"
    },
    {
      "name_en": "Martinique",
      "label": "Martinica",
      "value": "Martinica",
      "continent_en": "North America",
      "continent_es": "América del Norte",
      "capital_en": "Fort-de-France",
      "capital_es": "Fort-de-France",
      "dial_code": "+596",
      "code_2": "MQ",
      "code_3": "MTQ",
      "tld": ".mq"
    },
    {
      "name_en": "Mauritania",
      "label": "Mauritania",
      "value": "Mauritania",
      "continent_en": "Africa",
      "continent_es": "África",
      "capital_en": "Nouakchott",
      "capital_es": "Nouakchott",
      "dial_code": "+222",
      "code_2": "MR",
      "code_3": "MRT",
      "tld": ".mr"
    },
    {
      "name_en": "Mauritius",
      "label": "Mauricio",
      "value": "Mauricio",
      "continent_en": "Africa",
      "continent_es": "África",
      "capital_en": "Port Louis",
      "capital_es": "Port Louis",
      "dial_code": "+230",
      "code_2": "MU",
      "code_3": "MUS",
      "tld": ".mu"
    },
    {
      "name_en": "Mayotte",
      "label": "Mayotte",
      "value": "Mayotte",
      "continent_en": "Africa",
      "continent_es": "África",
      "capital_en": "Mamoudzou",
      "capital_es": "Mamoudzou",
      "dial_code": "+262",
      "code_2": "YT",
      "code_3": "MYT",
      "tld": ".yt"
    },
    {
      "name_en": "Mexico",
      "label": "México",
      "value": "México",
      "continent_en": "North America",
      "continent_es": "América del Norte",
      "capital_en": "Mexico City",
      "capital_es": "Ciudad de México",
      "dial_code": "+52",
      "code_2": "MX",
      "code_3": "MEX",
      "tld": ".mx"
    },
    {
      "name_en": "Micronesia",
      "label": "Micronesia",
      "value": "Micronesia",
      "continent_en": "Oceania",
      "continent_es": "Oceanía",
      "capital_en": "Palikir",
      "capital_es": "Palikir",
      "dial_code": "+691",
      "code_2": "FM",
      "code_3": "FSM",
      "tld": ".fm"
    },
    {
      "name_en": "Moldova",
      "label": "Moldavia",
      "value": "Moldavia",
      "continent_en": "Europe",
      "continent_es": "Europa",
      "capital_en": "Chisinau",
      "capital_es": "Chisinau",
      "dial_code": "+373",
      "code_2": "MD",
      "code_3": "MDA",
      "tld": ".md"
    },
    {
      "name_en": "Monaco",
      "label": "Mónaco",
      "value": "Mónaco",
      "continent_en": "Europe",
      "continent_es": "Europa",
      "capital_en": "Monaco",
      "capital_es": "Mónaco",
      "dial_code": "+377",
      "code_2": "MC",
      "code_3": "MCO",
      "tld": ".mc"
    },
    {
      "name_en": "Mongolia",
      "label": "Mongolia",
      "value": "Mongolia",
      "continent_en": "Asia",
      "continent_es": "Asia",
      "capital_en": "Ulan Bator",
      "capital_es": "Ulan Bator",
      "dial_code": "+976",
      "code_2": "MN",
      "code_3": "MNG",
      "tld": ".mn"
    },
    {
      "name_en": "Montenegro",
      "label": "Montenegro",
      "value": "Montenegro",
      "continent_en": "Europe",
      "continent_es": "Europa",
      "capital_en": "Podgorica",
      "capital_es": "Podgorica",
      "dial_code": "+382",
      "code_2": "ME",
      "code_3": "MNE",
      "tld": ".me"
    },
    {
      "name_en": "Montserrat",
      "label": "Montserrat",
      "value": "Montserrat",
      "continent_en": "North America",
      "continent_es": "América del Norte",
      "capital_en": "Plymouth",
      "capital_es": "Plymouth",
      "dial_code": "+1664",
      "code_2": "MS",
      "code_3": "MSR",
      "tld": ".ms"
    },
    {
      "name_en": "Morocco",
      "label": "Marruecos",
      "value": "Marruecos",
      "continent_en": "Africa",
      "continent_es": "África",
      "capital_en": "Rabat",
      "capital_es": "Rabat",
      "dial_code": "+212",
      "code_2": "MA",
      "code_3": "MAR",
      "tld": ".ma"
    },
    {
      "name_en": "Mozambique",
      "label": "Mozambique",
      "value": "Mozambique",
      "continent_en": "Africa",
      "continent_es": "África",
      "capital_en": "Maputo",
      "capital_es": "Maputo",
      "dial_code": "+258",
      "code_2": "MZ",
      "code_3": "MOZ",
      "tld": ".mz"
    },
    {
      "name_en": "Myanmar",
      "label": "Myanmar",
      "value": "Myanmar",
      "continent_en": "Asia",
      "continent_es": "Asia",
      "capital_en": "Naypyidaw",
      "capital_es": "Naypyidaw",
      "dial_code": "+95",
      "code_2": "MM",
      "code_3": "MMR",
      "tld": ".mm"
    },
    {
      "name_en": "Namibia",
      "label": "Namibia",
      "value": "Namibia",
      "continent_en": "Africa",
      "continent_es": "África",
      "capital_en": "Windhoek",
      "capital_es": "Windhoek",
      "dial_code": "+264",
      "code_2": "NA",
      "code_3": "NAM",
      "tld": ".na"
    },
    {
      "name_en": "Nauru",
      "label": "Nauru",
      "value": "Nauru",
      "continent_en": "Oceania",
      "continent_es": "Oceanía",
      "capital_en": "Yaren",
      "capital_es": "Yaren",
      "dial_code": "+674",
      "code_2": "NR",
      "code_3": "NRU",
      "tld": ".nr"
    },
    {
      "name_en": "Nepal",
      "label": "Nepal",
      "value": "Nepal",
      "continent_en": "Asia",
      "continent_es": "Asia",
      "capital_en": "Kathmandu",
      "capital_es": "Kathmandu",
      "dial_code": "+977",
      "code_2": "NP",
      "code_3": "NPL",
      "tld": ".np"
    },
    {
      "name_en": "Netherlands",
      "label": "Países Bajos",
      "value": "Países Bajos",
      "continent_en": "Europe",
      "continent_es": "Europa",
      "capital_en": "Amsterdam",
      "capital_es": "Ámsterdam",
      "dial_code": "+31",
      "code_2": "NL",
      "code_3": "NLD",
      "tld": ".nl"
    },
    {
      "name_en": "New Caledonia",
      "label": "Nueva Caledonia",
      "value": "Nueva Caledonia",
      "continent_en": "Oceania",
      "continent_es": "Oceanía",
      "capital_en": "Noumea",
      "capital_es": "Noumea",
      "dial_code": "+687",
      "code_2": "NC",
      "code_3": "NCL",
      "tld": ".nc"
    },
    {
      "name_en": "New Zealand",
      "label": "Nueva Zelanda",
      "value": "Nueva Zelanda",
      "continent_en": "Oceania",
      "continent_es": "Oceanía",
      "capital_en": "Wellington",
      "capital_es": "Wellington",
      "dial_code": "+64",
      "code_2": "NZ",
      "code_3": "NZL",
      "tld": ".nz"
    },
    {
      "name_en": "Nicaragua",
      "label": "Nicaragua",
      "value": "Nicaragua",
      "continent_en": "North America",
      "continent_es": "América del Norte",
      "capital_en": "Managua",
      "capital_es": "Managua",
      "dial_code": "+505",
      "code_2": "NI",
      "code_3": "NIC",
      "tld": ".ni"
    },
    {
      "name_en": "Niger",
      "label": "Níger",
      "value": "Níger",
      "continent_en": "Africa",
      "continent_es": "África",
      "capital_en": "Niamey",
      "capital_es": "Niamey",
      "dial_code": "+227",
      "code_2": "NE",
      "code_3": "NER",
      "tld": ".ne"
    },
    {
      "name_en": "Nigeria",
      "label": "Nigeria",
      "value": "Nigeria",
      "continent_en": "Africa",
      "continent_es": "África",
      "capital_en": "Abuja",
      "capital_es": "Abuja",
      "dial_code": "+234",
      "code_2": "NG",
      "code_3": "NGA",
      "tld": ".ng"
    },
    {
      "name_en": "Niue",
      "label": "Niue",
      "value": "Niue",
      "continent_en": "Oceania",
      "continent_es": "Oceanía",
      "capital_en": "Alofi",
      "capital_es": "Alofi",
      "dial_code": "+683",
      "code_2": "NU",
      "code_3": "NIU",
      "tld": ".nu"
    },
    {
      "name_en": "Norfolk Island",
      "label": "Isla Norfolk",
      "value": "Isla Norfolk",
      "continent_en": "Oceania",
      "continent_es": "Oceanía",
      "capital_en": "Kingston",
      "capital_es": "Kingston",
      "dial_code": "+672",
      "code_2": "NF",
      "code_3": "NFK",
      "tld": ".nf"
    },
    {
      "name_en": "North Korea",
      "label": "Corea del Norte",
      "value": "Corea del Norte",
      "continent_en": "Asia",
      "continent_es": "Asia",
      "capital_en": "Pyongyang",
      "capital_es": "Pyongyang",
      "dial_code": "+850",
      "code_2": "KP",
      "code_3": "PRK",
      "tld": ".kp"
    },
    {
      "name_en": "Northern Mariana Islands",
      "label": "Islas Marianas del Norte",
      "value": "Islas Marianas del Norte",
      "continent_en": "Oceania",
      "continent_es": "Oceanía",
      "capital_en": "Saipan",
      "capital_es": "Saipan",
      "dial_code": "+1670",
      "code_2": "MP",
      "code_3": "MNP",
      "tld": ".mp"
    },
    {
      "name_en": "Norway",
      "label": "Noruega",
      "value": "Noruega",
      "continent_en": "Europe",
      "continent_es": "Europa",
      "capital_en": "Oslo",
      "capital_es": "Oslo",
      "dial_code": "+47",
      "code_2": "NO",
      "code_3": "NOR",
      "tld": ".no"
    },
    {
      "name_en": "Oman",
      "label": "Omán",
      "value": "Omán",
      "continent_en": "Asia",
      "continent_es": "Asia",
      "capital_en": "Muscat",
      "capital_es": "Mascate",
      "dial_code": "+968",
      "code_2": "OM",
      "code_3": "OMN",
      "tld": ".om"
    },
    {
      "name_en": "Pakistan",
      "label": "Pakistán",
      "value": "Pakistán",
      "continent_en": "Asia",
      "continent_es": "Asia",
      "capital_en": "Islamabad",
      "capital_es": "Islamabad",
      "dial_code": "+92",
      "code_2": "PK",
      "code_3": "PAK",
      "tld": ".pk"
    },
    {
      "name_en": "Palau",
      "label": "Palaos",
      "value": "Palaos",
      "continent_en": "Oceania",
      "continent_es": "Oceanía",
      "capital_en": "Ngerulmud",
      "capital_es": "Ngerulmud",
      "dial_code": "+680",
      "code_2": "PW",
      "code_3": "PLW",
      "tld": ".pw"
    },
    {
      "name_en": "Palestine",
      "label": "Palestina",
      "value": "Palestina",
      "continent_en": "Asia",
      "continent_es": "Asia",
      "capital_en": "Ramallah",
      "capital_es": "Ramala",
      "dial_code": "+970",
      "code_2": "PS",
      "code_3": "PSE",
      "tld": ".ps"
    },
    {
      "name_en": "Panama",
      "label": "Panamá",
      "value": "Panamá",
      "continent_en": "North America",
      "continent_es": "América del Norte",
      "capital_en": "Panama City",
      "capital_es": "Ciudad de Panamá",
      "dial_code": "+507",
      "code_2": "PA",
      "code_3": "PAN",
      "tld": ".pa"
    },
    {
      "name_en": "Papua New Guinea",
      "label": "Papúa Nueva Guinea",
      "value": "Papúa Nueva Guinea",
      "continent_en": "Oceania",
      "continent_es": "Oceanía",
      "capital_en": "Port Moresby",
      "capital_es": "Puerto Moresby",
      "dial_code": "+675",
      "code_2": "PG",
      "code_3": "PNG",
      "tld": ".pg"
    },
    {
      "name_en": "Paraguay",
      "label": "Paraguay",
      "value": "Paraguay",
      "continent_en": "South America",
      "continent_es": "América del Sur",
      "capital_en": "Asunción",
      "capital_es": "Asunción",
      "dial_code": "+595",
      "code_2": "PY",
      "code_3": "PRY",
      "tld": ".py"
    },
    {
      "name_en": "Peru",
      "label": "Perú",
      "value": "Perú",
      "continent_en": "South America",
      "continent_es": "América del Sur",
      "capital_en": "Lima",
      "capital_es": "Lima",
      "dial_code": "+51",
      "code_2": "PE",
      "code_3": "PER",
      "tld": ".pe"
    },
    {
      "name_en": "Philippines",
      "label": "Filipinas",
      "value": "Filipinas",
      "continent_en": "Asia",
      "continent_es": "Asia",
      "capital_en": "Manila",
      "capital_es": "Manila",
      "dial_code": "+63",
      "code_2": "PH",
      "code_3": "PHL",
      "tld": ".ph"
    },
    {
      "name_en": "Pitcairn",
      "label": "Islas Pitcairn",
      "value": "Islas Pitcairn",
      "continent_en": "Oceania",
      "continent_es": "Oceanía",
      "capital_en": "Adamstown",
      "capital_es": "Adamstown",
      "dial_code": "+64",
      "code_2": "PN",
      "code_3": "PCN",
      "tld": ".pn"
    },
    {
      "name_en": "Poland",
      "label": "Polonia",
      "value": "Polonia",
      "continent_en": "Europe",
      "continent_es": "Europa",
      "capital_en": "Warsaw",
      "capital_es": "Varsovia",
      "dial_code": "+48",
      "code_2": "PL",
      "code_3": "POL",
      "tld": ".pl"
    },
    {
      "name_en": "Portugal",
      "label": "Portugal",
      "value": "Portugal",
      "continent_en": "Europe",
      "continent_es": "Europa",
      "capital_en": "Lisbon",
      "capital_es": "Lisboa",
      "dial_code": "+351",
      "code_2": "PT",
      "code_3": "PRT",
      "tld": ".pt"
    },
    {
      "name_en": "Puerto Rico",
      "label": "Puerto Rico",
      "value": "Puerto Rico",
      "continent_en": "North America",
      "continent_es": "América del Norte",
      "capital_en": "San Juan",
      "capital_es": "San Juan",
      "dial_code": "+1939",
      "code_2": "PR",
      "code_3": "PRI",
      "tld": ".pr"
    },
    {
      "name_en": "Qatar",
      "label": "Catar",
      "value": "Catar",
      "continent_en": "Asia",
      "continent_es": "Asia",
      "capital_en": "Doha",
      "capital_es": "Doha",
      "dial_code": "+974",
      "code_2": "QA",
      "code_3": "QAT",
      "tld": ".qa"
    },
    {
      "name_en": "Romania",
      "label": "Rumania",
      "value": "Rumania",
      "continent_en": "Europe",
      "continent_es": "Europa",
      "capital_en": "Bucharest",
      "capital_es": "Bucarest",
      "dial_code": "+40",
      "code_2": "RO",
      "code_3": "ROU",
      "tld": ".ro"
    },
    {
      "name_en": "Russia",
      "label": "Rusia",
      "value": "Rusia",
      "continent_en": "Europe",
      "continent_es": "Europa",
      "capital_en": "Moscow",
      "capital_es": "Moscú",
      "dial_code": "+7",
      "code_2": "RU",
      "code_3": "RUS",
      "tld": ".ru"
    },
    {
      "name_en": "Rwanda",
      "label": "Ruanda",
      "value": "Ruanda",
      "continent_en": "Africa",
      "continent_es": "África",
      "capital_en": "Kigali",
      "capital_es": "Kigali",
      "dial_code": "+250",
      "code_2": "RW",
      "code_3": "RWA",
      "tld": ".rw"
    },
    {
      "name_en": "Réunion",
      "label": "Reunión",
      "value": "Reunión",
      "continent_en": "Africa",
      "continent_es": "África",
      "capital_en": "Saint-Denis",
      "capital_es": "Saint-Denis",
      "dial_code": "+262",
      "code_2": "RE",
      "code_3": "REU",
      "tld": ".re"
    },
    {
      "name_en": "Saba",
      "label": "Saba",
      "value": "Saba",
      "continent_en": "North America",
      "continent_es": "América del Norte",
      "capital_en": "The Bottom",
      "capital_es": "The Bottom",
      "dial_code": "+599",
      "code_2": "BQ",
      "code_3": "BES",
      "tld": ".bq"
    },
    {
      "name_en": "Saint Barthélemy",
      "label": "San Bartolomé",
      "value": "San Bartolomé",
      "continent_en": "North America",
      "continent_es": "América del Norte",
      "capital_en": "Gustavia",
      "capital_es": "Gustavia",
      "dial_code": "+590",
      "code_2": "BL",
      "code_3": "BLM",
      "tld": ".bl"
    },
    {
      "name_en": "Saint Helena",
      "label": "Santa Elena",
      "value": "Santa Elena",
      "continent_en": "Africa",
      "continent_es": "África",
      "capital_en": "Jamestown",
      "capital_es": "Jamestown",
      "dial_code": "+290",
      "code_2": "SH",
      "code_3": "SHN",
      "tld": ".sh"
    },
    {
      "name_en": "Saint Kitts and Nevis",
      "label": "San Cristóbal y Nieves",
      "value": "San Cristóbal y Nieves",
      "continent_en": "North America",
      "continent_es": "América del Norte",
      "capital_en": "Basseterre",
      "capital_es": "Basseterre",
      "dial_code": "+1869",
      "code_2": "KN",
      "code_3": "KNA",
      "tld": ".kn"
    },
    {
      "name_en": "Saint Lucia",
      "label": "Santa Lucía",
      "value": "Santa Lucía",
      "continent_en": "North America",
      "continent_es": "América del Norte",
      "capital_en": "Castries",
      "capital_es": "Castries",
      "dial_code": "+1758",
      "code_2": "LC",
      "code_3": "LCA",
      "tld": ".lc"
    },
    {
      "name_en": "Saint Martin",
      "label": "San Martín",
      "value": "San Martín",
      "continent_en": "North America",
      "continent_es": "América del Norte",
      "capital_en": "Marigot",
      "capital_es": "Marigot",
      "dial_code": "+590",
      "code_2": "MF",
      "code_3": "MAF",
      "tld": ".mf"
    },
    {
      "name_en": "Saint Pierre and Miquelon",
      "label": "San Pedro y Miquelón",
      "value": "San Pedro y Miquelón",
      "continent_en": "North America",
      "continent_es": "América del Norte",
      "capital_en": "Saint-Pierre",
      "capital_es": "Saint-Pierre",
      "dial_code": "+508",
      "code_2": "PM",
      "code_3": "SPM",
      "tld": ".pm"
    },
    {
      "name_en": "Saint Vincent and the Grenadines",
      "label": "San Vicente y las Granadinas",
      "value": "San Vicente y las Granadinas",
      "continent_en": "North America",
      "continent_es": "América del Norte",
      "capital_en": "Kingstown",
      "capital_es": "Kingstown",
      "dial_code": "+1784",
      "code_2": "VC",
      "code_3": "VCT",
      "tld": ".vc"
    },
    {
      "name_en": "Samoa",
      "label": "Samoa",
      "value": "Samoa",
      "continent_en": "Oceania",
      "continent_es": "Oceanía",
      "capital_en": "Apia",
      "capital_es": "Apia",
      "dial_code": "+685",
      "code_2": "WS",
      "code_3": "WSM",
      "tld": ".ws"
    },
    {
      "name_en": "San Marino",
      "label": "San Marino",
      "value": "San Marino",
      "continent_en": "Europe",
      "continent_es": "Europa",
      "capital_en": "San Marino",
      "capital_es": "San Marino",
      "dial_code": "+378",
      "code_2": "SM",
      "code_3": "SMR",
      "tld": ".sm"
    },
    {
      "name_en": "Sao Tome and Principe",
      "label": "Santo Tomé y Príncipe",
      "value": "Santo Tomé y Príncipe",
      "continent_en": "Africa",
      "continent_es": "África",
      "capital_en": "São Tomé",
      "capital_es": "São Tomé",
      "dial_code": "+239",
      "code_2": "ST",
      "code_3": "STP",
      "tld": ".st"
    },
    {
      "name_en": "Saudi Arabia",
      "label": "Arabia Saudita",
      "value": "Arabia Saudita",
      "continent_en": "Asia",
      "continent_es": "Asia",
      "capital_en": "Riyadh",
      "capital_es": "Riad",
      "dial_code": "+966",
      "code_2": "SA",
      "code_3": "SAU",
      "tld": ".sa"
    },
    {
      "name_en": "Senegal",
      "label": "Senegal",
      "value": "Senegal",
      "continent_en": "Africa",
      "continent_es": "África",
      "capital_en": "Dakar",
      "capital_es": "Dakar",
      "dial_code": "+221",
      "code_2": "SN",
      "code_3": "SEN",
      "tld": ".sn"
    },
    {
      "name_en": "Serbia",
      "label": "Serbia",
      "value": "Serbia",
      "continent_en": "Europe",
      "continent_es": "Europa",
      "capital_en": "Belgrade",
      "capital_es": "Belgrado",
      "dial_code": "+381",
      "code_2": "RS",
      "code_3": "SRB",
      "tld": ".rs"
    },
    {
      "name_en": "Seychelles",
      "label": "Seychelles",
      "value": "Seychelles",
      "continent_en": "Africa",
      "continent_es": "África",
      "capital_en": "Victoria",
      "capital_es": "Victoria",
      "dial_code": "+248",
      "code_2": "SC",
      "code_3": "SYC",
      "tld": ".sc"
    },
    {
      "name_en": "Sierra Leone",
      "label": "Sierra Leona",
      "value": "Sierra Leona",
      "continent_en": "Africa",
      "continent_es": "África",
      "capital_en": "Freetown",
      "capital_es": "Freetown",
      "dial_code": "+232",
      "code_2": "SL",
      "code_3": "SLE",
      "tld": ".sl"
    },
    {
      "name_en": "Singapore",
      "label": "Singapur",
      "value": "Singapur",
      "continent_en": "Asia",
      "continent_es": "Asia",
      "capital_en": "Singapore",
      "capital_es": "Singapur",
      "dial_code": "+65",
      "code_2": "SG",
      "code_3": "SGP",
      "tld": ".sg"
    },
    {
      "name_en": "Sint Eustatius",
      "label": "San Eustaquio",
      "value": "San Eustaquio",
      "continent_en": "North America",
      "continent_es": "América del Norte",
      "capital_en": "Philipsburg",
      "capital_es": "Philipsburg",
      "dial_code": "+599",
      "code_2": "BQ",
      "code_3": "BES",
      "tld": ".bq"
    },
    {
      "name_en": "Sint Maarten",
      "label": "Sint Maarten",
      "value": "Sint Maarten",
      "continent_en": "North America",
      "continent_es": "América del Norte",
      "capital_en": "Philipsburg",
      "capital_es": "Philipsburg",
      "dial_code": "+1721",
      "code_2": "SX",
      "code_3": "SXM",
      "tld": ".sx"
    },
    {
      "name_en": "Slovakia",
      "label": "Eslovaquia",
      "value": "Eslovaquia",
      "continent_en": "Europe",
      "continent_es": "Europa",
      "capital_en": "Bratislava",
      "capital_es": "Bratislava",
      "dial_code": "+421",
      "code_2": "SK",
      "code_3": "SVK",
      "tld": ".sk"
    },
    {
      "name_en": "Slovenia",
      "label": "Eslovenia",
      "value": "Eslovenia",
      "continent_en": "Europe",
      "continent_es": "Europa",
      "capital_en": "Ljubljana",
      "capital_es": "Ljubljana",
      "dial_code": "+386",
      "code_2": "SI",
      "code_3": "SVN",
      "tld": ".si"
    },
    {
      "name_en": "Solomon Islands",
      "label": "Islas Salomón",
      "value": "Islas Salomón",
      "continent_en": "Oceania",
      "continent_es": "Oceanía",
      "capital_en": "Honiara",
      "capital_es": "Honiara",
      "dial_code": "+677",
      "code_2": "SB",
      "code_3": "SLB",
      "tld": ".sb"
    },
    {
      "name_en": "Somalia",
      "label": "Somalia",
      "value": "Somalia",
      "continent_en": "Africa",
      "continent_es": "África",
      "capital_en": "Mogadishu",
      "capital_es": "Mogadiscio",
      "dial_code": "+252",
      "code_2": "SO",
      "code_3": "SOM",
      "tld": ".so"
    },
    {
      "name_en": "South Africa",
      "label": "Sudáfrica",
      "value": "Sudáfrica",
      "continent_en": "Africa",
      "continent_es": "África",
      "capital_en": "Pretoria",
      "capital_es": "Pretoria",
      "dial_code": "+27",
      "code_2": "ZA",
      "code_3": "ZAF",
      "tld": ".za"
    },
    {
      "name_en": "South Georgia and the South Sandwich Islands",
      "label": "Islas Georgias del Sur y Sandwich del Sur",
      "value": "Islas Georgias del Sur y Sandwich del Sur",
      "continent_en": "Antarctica",
      "continent_es": "Antártida",
      "capital_en": "King Edward Point",
      "capital_es": "King Edward Point",
      "dial_code": "+500",
      "code_2": "GS",
      "code_3": "SGS",
      "tld": ".gs"
    },
    {
      "name_en": "South Korea",
      "label": "Corea del Sur",
      "value": "Corea del Sur",
      "continent_en": "Asia",
      "continent_es": "Asia",
      "capital_en": "Seoul",
      "capital_es": "Seúl",
      "dial_code": "+82",
      "code_2": "KR",
      "code_3": "KOR",
      "tld": ".kr"
    },
    {
      "name_en": "South Sudan",
      "label": "Sudán del Sur",
      "value": "Sudán del Sur",
      "continent_en": "Africa",
      "continent_es": "África",
      "capital_en": "Juba",
      "capital_es": "Juba",
      "dial_code": "+211",
      "code_2": "SS",
      "code_3": "SSD",
      "tld": ".ss"
    },
    {
      "name_en": "Spain",
      "label": "España",
      "value": "España",
      "continent_en": "Europe",
      "continent_es": "Europa",
      "capital_en": "Madrid",
      "capital_es": "Madrid",
      "dial_code": "+34",
      "code_2": "ES",
      "code_3": "ESP",
      "tld": ".es"
    },
    {
      "name_en": "Sri Lanka",
      "label": "Sri Lanka",
      "value": "Sri Lanka",
      "continent_en": "Asia",
      "continent_es": "Asia",
      "capital_en": "Colombo",
      "capital_es": "Colombo",
      "dial_code": "+94",
      "code_2": "LK",
      "code_3": "LKA",
      "tld": ".lk"
    },
    {
      "name_en": "Sudan",
      "label": "Sudán",
      "value": "Sudán",
      "continent_en": "Africa",
      "continent_es": "África",
      "capital_en": "Khartoum",
      "capital_es": "Jartum",
      "dial_code": "+249",
      "code_2": "SD",
      "code_3": "SDN",
      "tld": ".sd"
    },
    {
      "name_en": "Suriname",
      "label": "Surinam",
      "value": "Surinam",
      "continent_en": "South America",
      "continent_es": "América del Sur",
      "capital_en": "Paramaribo",
      "capital_es": "Paramaribo",
      "dial_code": "+597",
      "code_2": "SR",
      "code_3": "SUR",
      "tld": ".sr"
    },
    {
      "name_en": "Svalbard and Jan Mayen",
      "label": "Svalbard y Jan Mayen",
      "value": "Svalbard y Jan Mayen",
      "continent_en": "Europe",
      "continent_es": "Europa",
      "capital_en": "Longyearbyen",
      "capital_es": "Longyearbyen",
      "dial_code": "+47",
      "code_2": "SJ",
      "code_3": "SJM",
      "tld": ".sj"
    },
    {
      "name_en": "Sweden",
      "label": "Suecia",
      "value": "Suecia",
      "continent_en": "Europe",
      "continent_es": "Europa",
      "capital_en": "Stockholm",
      "capital_es": "Estocolmo",
      "dial_code": "+46",
      "code_2": "SE",
      "code_3": "SWE",
      "tld": ".se"
    },
    {
      "name_en": "Switzerland",
      "label": "Suiza",
      "value": "Suiza",
      "continent_en": "Europe",
      "continent_es": "Europa",
      "capital_en": "Bern",
      "capital_es": "Berna",
      "dial_code": "+41",
      "code_2": "CH",
      "code_3": "CHE",
      "tld": ".ch"
    },
    {
      "name_en": "Syria",
      "label": "Siria",
      "value": "Siria",
      "continent_en": "Asia",
      "continent_es": "Asia",
      "capital_en": "Damascus",
      "capital_es": "Damasco",
      "dial_code": "+963",
      "code_2": "SY",
      "code_3": "SYR",
      "tld": ".sy"
    },
    {
      "name_en": "Taiwan",
      "label": "Taiwán",
      "value": "Taiwán",
      "continent_en": "Asia",
      "continent_es": "Asia",
      "capital_en": "Taipei",
      "capital_es": "Taipei",
      "dial_code": "+886",
      "code_2": "TW",
      "code_3": "TWN",
      "tld": ".tw"
    },
    {
      "name_en": "Tajikistan",
      "label": "Tayikistán",
      "value": "Tayikistán",
      "continent_en": "Asia",
      "continent_es": "Asia",
      "capital_en": "Dushanbe",
      "capital_es": "Dusambé",
      "dial_code": "+992",
      "code_2": "TJ",
      "code_3": "TJK",
      "tld": ".tj"
    },
    {
      "name_en": "Tanzania",
      "label": "Tanzania",
      "value": "Tanzania",
      "continent_en": "Africa",
      "continent_es": "África",
      "capital_en": "Dodoma",
      "capital_es": "Dodoma",
      "dial_code": "+255",
      "code_2": "TZ",
      "code_3": "TZA",
      "tld": ".tz"
    },
    {
      "name_en": "Thailand",
      "label": "Tailandia",
      "value": "Tailandia",
      "continent_en": "Asia",
      "continent_es": "Asia",
      "capital_en": "Bangkok",
      "capital_es": "Bangkok",
      "dial_code": "+66",
      "code_2": "TH",
      "code_3": "THA",
      "tld": ".th"
    },
    {
      "name_en": "Timor-Leste",
      "label": "Timor-Leste",
      "value": "Timor-Leste",
      "continent_en": "Asia",
      "continent_es": "Asia",
      "capital_en": "Dili",
      "capital_es": "Dili",
      "dial_code": "+670",
      "code_2": "TL",
      "code_3": "TLS",
      "tld": ".tl"
    },
    {
      "name_en": "Togo",
      "label": "Togo",
      "value": "Togo",
      "continent_en": "Africa",
      "continent_es": "África",
      "capital_en": "Lome",
      "capital_es": "Lomé",
      "dial_code": "+228",
      "code_2": "TG",
      "code_3": "TGO",
      "tld": ".tg"
    },
    {
      "name_en": "Tokelau",
      "label": "Tokelau",
      "value": "Tokelau",
      "continent_en": "Oceania",
      "continent_es": "Oceanía",
      "capital_en": "Fakaofo",
      "capital_es": "Fakaofo",
      "dial_code": "+690",
      "code_2": "TK",
      "code_3": "TKL",
      "tld": ".tk"
    },
    {
      "name_en": "Tonga",
      "label": "Tonga",
      "value": "Tonga",
      "continent_en": "Oceania",
      "continent_es": "Oceanía",
      "capital_en": "Nuku'alofa",
      "capital_es": "Nuku'alofa",
      "dial_code": "+676",
      "code_2": "TO",
      "code_3": "TON",
      "tld": ".to"
    },
    {
      "name_en": "Trinidad and Tobago",
      "label": "Trinidad y Tobago",
      "value": "Trinidad y Tobago",
      "continent_en": "North America",
      "continent_es": "América del Norte",
      "capital_en": "Port of Spain",
      "capital_es": "Puerto España",
      "dial_code": "+1868",
      "code_2": "TT",
      "code_3": "TTO",
      "tld": ".tt"
    },
    {
      "name_en": "Tristan da Cunha",
      "label": "Tristán de Acuña",
      "value": "Tristán de Acuña",
      "continent_en": "Africa",
      "continent_es": "África",
      "capital_en": "Edinburgh of the Seven Seas",
      "capital_es": "Edinburgh of the Seven Seas",
      "dial_code": "+290",
      "code_2": "TA",
      "code_3": "SHN",
      "tld": ".ta"
    },
    {
      "name_en": "Tunisia",
      "label": "Túnez",
      "value": "Túnez",
      "continent_en": "Africa",
      "continent_es": "África",
      "capital_en": "Tunis",
      "capital_es": "Túnez",
      "dial_code": "+216",
      "code_2": "TN",
      "code_3": "TUN",
      "tld": ".tn"
    },
    {
      "name_en": "Turkmenistan",
      "label": "Turkmenistán",
      "value": "Turkmenistán",
      "continent_en": "Asia",
      "continent_es": "Asia",
      "capital_en": "Ashgabat",
      "capital_es": "Ashgabat",
      "dial_code": "+993",
      "code_2": "TM",
      "code_3": "TKM",
      "tld": ".tm"
    },
    {
      "name_en": "Turks and Caicos Islands",
      "label": "Islas Turcas y Caicos",
      "value": "Islas Turcas y Caicos",
      "continent_en": "North America",
      "continent_es": "América del Norte",
      "capital_en": "Cockburn Town",
      "capital_es": "Cockburn Town",
      "dial_code": "+1649",
      "code_2": "TC",
      "code_3": "TCA",
      "tld": ".tc"
    },
    {
      "name_en": "Tuvalu",
      "label": "Tuvalu",
      "value": "Tuvalu",
      "continent_en": "Oceania",
      "continent_es": "Oceanía",
      "capital_en": "Funafuti",
      "capital_es": "Funafuti",
      "dial_code": "+688",
      "code_2": "TV",
      "code_3": "TUV",
      "tld": ".tv"
    },
    {
      "name_en": "Türkiye",
      "label": "Turquía",
      "value": "Turquía",
      "continent_en": "Asia",
      "continent_es": "Asia",
      "capital_en": "Ankara",
      "capital_es": "Ankara",
      "dial_code": "+90",
      "code_2": "TR",
      "code_3": "TUR",
      "tld": ".tr"
    },
    {
      "name_en": "Uganda",
      "label": "Uganda",
      "value": "Uganda",
      "continent_en": "Africa",
      "continent_es": "África",
      "capital_en": "Kampala",
      "capital_es": "Kampala",
      "dial_code": "+256",
      "code_2": "UG",
      "code_3": "UGA",
      "tld": ".ug"
    },
    {
      "name_en": "Ukraine",
      "label": "Ucrania",
      "value": "Ucrania",
      "continent_en": "Europe",
      "continent_es": "Europa",
      "capital_en": "Kiev",
      "capital_es": "Kiev",
      "dial_code": "+380",
      "code_2": "UA",
      "code_3": "UKR",
      "tld": ".ua"
    },
    {
      "name_en": "United Arab Emirates",
      "label": "Emiratos Árabes Unidos",
      "value": "Emiratos Árabes Unidos",
      "continent_en": "Asia",
      "continent_es": "Asia",
      "capital_en": "Abu Dhabi",
      "capital_es": "Abu Dhabi",
      "dial_code": "+971",
      "code_2": "AE",
      "code_3": "ARE",
      "tld": ".ae"
    },
    {
      "name_en": "United Kingdom",
      "label": "Reino Unido",
      "value": "Reino Unido",
      "continent_en": "Europe",
      "continent_es": "Europa",
      "capital_en": "London",
      "capital_es": "Londres",
      "dial_code": "+44",
      "code_2": "GB",
      "code_3": "GBR",
      "tld": ".uk"
    },
    {
      "name_en": "United States",
      "label": "Estados Unidos",
      "value": "Estados Unidos",
      "continent_en": "North America",
      "continent_es": "América del Norte",
      "capital_en": "Washington, D.C.",
      "capital_es": "Washington, D.C.",
      "dial_code": "+1",
      "code_2": "US",
      "code_3": "USA",
      "tld": ".us"
    },
    {
      "name_en": "Uruguay",
      "label": "Uruguay",
      "value": "Uruguay",
      "continent_en": "South America",
      "continent_es": "América del Sur",
      "capital_en": "Montevideo",
      "capital_es": "Montevideo",
      "dial_code": "+598",
      "code_2": "UY",
      "code_3": "URY",
      "tld": ".uy"
    },
    {
      "name_en": "Uzbekistan",
      "label": "Uzbekistán",
      "value": "Uzbekistán",
      "continent_en": "Asia",
      "continent_es": "Asia",
      "capital_en": "Tashkent",
      "capital_es": "Tashkent",
      "dial_code": "+998",
      "code_2": "UZ",
      "code_3": "UZB",
      "tld": ".uz"
    },
    {
      "name_en": "Vanuatu",
      "label": "Vanuatu",
      "value": "Vanuatu",
      "continent_en": "Oceania",
      "continent_es": "Oceanía",
      "capital_en": "Port Vila",
      "capital_es": "Port Vila",
      "dial_code": "+678",
      "code_2": "VU",
      "code_3": "VUT",
      "tld": ".vu"
    },
    {
      "name_en": "Vatican City State",
      "label": "Ciudad del Vaticano",
      "value": "Ciudad del Vaticano",
      "continent_en": "Europe",
      "continent_es": "Europa",
      "capital_en": "Vatican City",
      "capital_es": "Ciudad del Vaticano",
      "dial_code": "+379",
      "code_2": "VA",
      "code_3": "VAT",
      "tld": ".va"
    },
    {
      "name_en": "Venezuela",
      "label": "Venezuela",
      "value": "Venezuela",
      "continent_en": "South America",
      "continent_es": "América del Sur",
      "capital_en": "Caracas",
      "capital_es": "Caracas",
      "dial_code": "+58",
      "code_2": "VE",
      "code_3": "VEN",
      "tld": ".ve"
    },
    {
      "name_en": "Vietnam",
      "label": "Vietnam",
      "value": "Vietnam",
      "continent_en": "Asia",
      "continent_es": "Asia",
      "capital_en": "Hanoi",
      "capital_es": "Hanoi",
      "dial_code": "+84",
      "code_2": "VN",
      "code_3": "VNM",
      "tld": ".vn"
    },
    {
      "name_en": "Virgin Islands, British",
      "label": "Islas Vírgenes Británicas",
      "value": "Islas Vírgenes Británicas",
      "continent_en": "North America",
      "continent_es": "América del Norte",
      "capital_en": "Road Town",
      "capital_es": "Road Town",
      "dial_code": "+1284",
      "code_2": "VG",
      "code_3": "VGB",
      "tld": ".vg"
    },
    {
      "name_en": "Virgin Islands, U.S.",
      "label": "Islas Vírgenes de los Estados Unidos",
      "value": "Islas Vírgenes de los Estados Unidos",
      "continent_en": "North America",
      "continent_es": "América del Norte",
      "capital_en": "Charlotte Amalie",
      "capital_es": "Charlotte Amalie",
      "dial_code": "+1340",
      "code_2": "VI",
      "code_3": "VIR",
      "tld": ".vi"
    },
    {
      "name_en": "Wallis and Futuna",
      "label": "Wallis y Futuna",
      "value": "Wallis y Futuna",
      "continent_en": "Oceania",
      "continent_es": "Oceanía",
      "capital_en": "Mata-Utu",
      "capital_es": "Mata-Utu",
      "dial_code": "+681",
      "code_2": "WF",
      "code_3": "WLF",
      "tld": ".wf"
    },
    {
      "name_en": "Western Sahara",
      "label": "Sahara Occidental",
      "value": "Sahara Occidental",
      "continent_en": "Africa",
      "continent_es": "África",
      "capital_en": "El Aaiún",
      "capital_es": "El Aaiún",
      "dial_code": "+212",
      "code_2": "EH",
      "code_3": "ESH",
      "tld": ".eh"
    },
    {
      "name_en": "Yemen",
      "label": "Yemen",
      "value": "Yemen",
      "continent_en": "Asia",
      "continent_es": "Asia",
      "capital_en": "Sana'a",
      "capital_es": "Sana'a",
      "dial_code": "+967",
      "code_2": "YE",
      "code_3": "YEM",
      "tld": ".ye"
    },
    {
      "name_en": "Zambia",
      "label": "Zambia",
      "value": "Zambia",
      "continent_en": "Africa",
      "continent_es": "África",
      "capital_en": "Lusaka",
      "capital_es": "Lusaka",
      "dial_code": "+260",
      "code_2": "ZM",
      "code_3": "ZMB",
      "tld": ".zm"
    },
    {
      "name_en": "Zimbabwe",
      "label": "Zimbabue",
      "value": "Zimbabue",
      "continent_en": "Africa",
      "continent_es": "África",
      "capital_en": "Harare",
      "capital_es": "Harare",
      "dial_code": "+263",
      "code_2": "ZW",
      "code_3": "ZWE",
      "tld": ".zw"
    }
  ]
}
